FENGYUN 1C DEB          
1 30321U 99025AAJ 24249.53058829  .00002050  00000+0  10508-2 0  9997
2 30321  98.6514 255.6318 0062870 124.9427   0.9732 14.15487457909876
FENGYUN 1C DEB          
1 30322U 99025AAK 24249.59954223  .00005359  00000+0  32264-2 0  9995
2 30322  98.4370 134.4510 0132321 124.1432 237.2368 14.02824300898268
FENGYUN 1C DEB          
1 30325U 99025AAL 24249.05587924  .00000466  00000+0  29459-3 0  9996
2 30325  98.7764 275.7040 0017251 122.6620 237.6217 14.08826210904863
FENGYUN 1C DEB          
1 30326U 99025AAM 24249.75322765  .00000479  00000+0  42378-3 0  9993
2 30326  98.6787 165.4787 0141423 210.6822 148.6010 13.85126070890656
FENGYUN 1C DEB          
1 30327U 99025AAN 24249.70776850  .00016658  00000+0  84873-2 0  9998
2 30327  98.4542 161.9174 0132178  37.7382  21.2566 14.11354123899104
FENGYUN 1C DEB          
1 30328U 99025AAP 24249.53831899  .00000790  00000+0  45466-3 0  9991
2 30328  98.7100 267.3693 0006216  49.2770  74.2259 14.12050358907265
FENGYUN 1C DEB          
1 30329U 99025AAQ 24249.75636194  .00001073  00000+0  89795-3 0  9995
2 30329  99.2483 168.1167 0141910 195.8948 222.5720 13.85949303890039
FENGYUN 1C DEB          
1 30330U 99025AAR 24249.61298605  .00008658  00000+0  73300-2 0  9993
2 30330  98.8839 263.2382 0193913 349.8899 127.1079 13.79510213882656
FENGYUN 1C DEB          
1 30331U 99025AAS 24249.34216644  .00002081  00000+0  14673-2 0  9999
2 30331  99.0146 288.1122 0097324 202.4190 219.6395 13.96860362896471
FENGYUN 1C DEB          
1 30332U 99025AAT 24249.88618413  .00001071  00000+0  10281-2 0  9998
2 30332  99.6473 207.3933 0178108 225.9849 204.5497 13.75872592883584
FENGYUN 1C DEB          
1 30333U 99025AAU 24249.61060992  .02761155  94352-2  44178-2 0  9999
2 30333  98.8604 294.9276 0018381 219.8843 140.1084 16.05662804950532
FENGYUN 1C DEB          
1 30334U 99025AAV 24248.51549937  .00012327  00000+0  92640-2 0  9998
2 30334  99.0150 355.3895 0155698 165.8237 325.4053 13.88920948887673
FENGYUN 1C DEB          
1 30335U 99025AAW 24249.23553421  .00001353  00000+0  86716-3 0  9997
2 30335  98.8631 246.7768 0133001 340.2396  82.0843 14.00766154901005
FENGYUN 1C DEB          
1 30336U 99025AAX 24249.55432462  .00002331  00000+0  11462-2 0  9996
2 30336  98.6452 277.2462 0042917 262.0638 225.8414 14.18110884910340
FENGYUN 1C DEB          
1 30338U 99025AAZ 24249.11109622  .00023824  00000+0  45712-2 0  9994
2 30338  98.5124 313.6839 0304406 153.4345 268.9995 14.38112110914557
FENGYUN 1C DEB          
1 30339U 99025ABA 24249.22673712  .00019604  00000+0  80634-2 0  9996
2 30339  98.9779 332.8531 0023732 351.0046  64.6456 14.26790440907879
FENGYUN 1C DEB          
1 30340U 99025ABB 24249.63766698  .00000490  00000+0  30692-3 0  9992
2 30340  99.0683 302.6660 0145720 343.6310 145.5319 14.04204165902926
FENGYUN 1C DEB          
1 30341U 99025ABC 24249.21354101  .00019788  00000+0  84706-2 0  9993
2 30341  99.2292 103.9279 0056813 321.4632 164.4632 14.24018061904579
FENGYUN 1C DEB          
1 30342U 99025ABD 24249.70162525  .00003645  00000+0  32617-2 0  9994
2 30342 100.1560  28.6107 0171281 231.7695 255.5647 13.78675321885170
FENGYUN 1C DEB          
1 30343U 99025ABE 24249.78166890  .00238916  00000+0  79741-2 0  9992
2 30343  98.9673 179.9940 0080842  67.5042 293.4725 15.26984007939399
FENGYUN 1C DEB          
1 30344U 99025ABF 24249.17765098  .00023620  00000+0  76574-2 0  9996
2 30344  98.8492 306.0940 0009766  70.3491   0.8874 14.38873995913771
FENGYUN 1C DEB          
1 30345U 99025ABG 24249.55730897  .00016664  00000+0  61226-2 0  9996
2 30345  98.9486 284.7122 0020659 167.1969 192.9743 14.32623507911175
FENGYUN 1C DEB          
1 30346U 99025ABH 24249.23052737  .00014544  00000+0  61079-2 0  9993
2 30346  98.8192 334.1924 0064825 296.6000 124.6129 14.24818558907882
FENGYUN 1C DEB          
1 30347U 99025ABJ 24249.17202098  .00000550  00000+0  41828-3 0  9997
2 30347  98.4163 110.1361 0149601 241.6702 246.4100 13.92384204895089
FENGYUN 1C DEB          
1 30348U 99025ABK 24249.75430675  .00012910  00000+0  53072-2 0  9992
2 30348  98.8769 328.6635 0020880 287.3521 196.2179 14.26965288909190
FENGYUN 1C DEB          
1 30349U 99025ABL 24249.49404885  .00009707  00000+0  57656-2 0  9990
2 30349  98.5464 228.6981 0091256 247.8458 240.2878 14.05580067897083
FENGYUN 1C DEB          
1 30350U 99025ABM 24249.33364837  .00002510  00000+0  19836-2 0  9990
2 30350  98.1298 125.7441 0222498 144.4138 280.8892 13.81347893885809
FENGYUN 1C DEB          
1 30352U 99025ABP 24249.01468045  .00001256  00000+0  77468-3 0  9995
2 30352  98.8102 276.9471 0028831 181.1498 208.4901 14.07012519903885
FENGYUN 1C DEB          
1 30355U 99025ABS 24249.86524630  .00004798  00000+0  23949-2 0  9992
2 30355  98.5988 263.1371 0054890 200.5703 282.3938 14.16500004907991
FENGYUN 1C DEB          
1 30356U 99025ABT 24249.61204997  .00004550  00000+0  25223-2 0  9990
2 30356  98.6681 253.7692 0054596 165.8876 319.7692 14.10932504904842
FENGYUN 1C DEB          
1 30357U 99025ABU 24249.35457387  .00000480  00000+0  32232-3 0  9992
2 30357  98.8613 282.7341 0049712 185.7082 241.0906 14.04881893902993
FENGYUN 1C DEB          
1 30358U 99025ABV 24249.08211417  .00011567  00000+0  57112-2 0  9996
2 30358  98.5790  87.9455 0089449  96.3892  23.3722 14.15464423903441
FENGYUN 1C DEB          
1 30359U 99025ABW 24249.13671035  .00009857  00000+0  74104-2 0  9998
2 30359 101.6271 312.4182 0158744  56.2436 305.3723 13.88848809886198
FENGYUN 1C DEB          
1 30360U 99025ABX 24249.16635262  .00011192  00000+0  51532-2 0  9990
2 30360  98.7987 313.2110 0032114  50.2233   5.4010 14.20957868908264
FENGYUN 1C DEB          
1 30361U 99025ABY 24249.09202109  .00007649  00000+0  34180-2 0  9995
2 30361  98.6111 289.6620 0066725 298.6788  60.7693 14.21733655910185
FENGYUN 1C DEB          
1 30362U 99025ABZ 24249.29483301  .00010912  00000+0  64696-2 0  9995
2 30362  99.0448 164.0996 0098731 201.3855 158.3173 14.05311109896418
FENGYUN 1C DEB          
1 30363U 99025ACA 24247.11528722  .00006804  00000+0  36044-2 0  9993
2 30363  99.0661 305.9392 0084086 275.2545  83.9035 14.12181411902570
FENGYUN 1C DEB          
1 30364U 99025ACB 24248.14465462  .00012910  00000+0  43359-2 0  9991
2 30364  98.1100 200.7087 0372940 225.4547 206.2010 14.04554202890853
FENGYUN 1C DEB          
1 30365U 99025ACC 24249.53049546  .00003245  00000+0  13879-2 0  9992
2 30365  98.6025 251.0115 0169646   8.5259 114.6186 14.18170164910443
FENGYUN 1C DEB          
1 30366U 99025ACD 24249.72716862  .00004525  00000+0  16975-2 0  9998
2 30366  98.9347 147.6030 0066289 131.0699 294.6769 14.30937993917223
FENGYUN 1C DEB          
1 30368U 99025ACF 24249.29540317  .00001020  00000+0  97899-3 0  9994
2 30368  99.1566   6.7544 0189115  90.2479 300.7394 13.74794561882922
FENGYUN 1C DEB          
1 30369U 99025ACG 24249.51985527  .00001629  00000+0  88067-3 0  9998
2 30369  98.7119 253.9141 0101696  72.7979  77.8391 14.11317767907107
FENGYUN 1C DEB          
1 30370U 99025ACH 24249.04727819  .00007107  00000+0  34666-2 0  9998
2 30370  99.0948 289.0270 0105681 193.4615 236.1924 14.15478896905242
FENGYUN 1C DEB          
1 30371U 99025ACJ 24249.85161444  .00007607  00000+0  31892-2 0  9997
2 30371  98.6199 293.6246 0007864 243.6391 170.7984 14.26206245913082
FENGYUN 1C DEB          
1 30374U 99025ACM 24249.16671490  .00028018  00000+0  71609-2 0  9990
2 30374  99.2946  54.0871 0048830 121.6865 294.2783 14.49662326921746
FENGYUN 1C DEB          
1 30377U 99025ACQ 24249.63133610  .00001494  00000+0  10114-2 0  9995
2 30377  98.9369 275.7496 0120742 107.7630  16.6569 13.98301557897320
FENGYUN 1C DEB          
1 30379U 99025ACS 24249.60964897  .00001490  00000+0  90889-3 0  9997
2 30379  98.7913 271.5579 0037610 142.7066 337.0333 14.07199627903011
FENGYUN 1C DEB          
1 30380U 99025ACT 24249.56100299  .00003723  00000+0  81385-3 0  9994
2 30380  98.9630 262.8865 0184161 168.9481 191.5842 14.48414803928541
FENGYUN 1C DEB          
1 30381U 99025ACU 24248.05563874  .00006726  00000+0  37963-2 0  9998
2 30381  98.8554 284.2037 0054141 310.5063  49.1396 14.09814481856107
FENGYUN 1C DEB          
1 30382U 99025ACV 24249.13884005  .00003168  00000+0  12805-2 0  9996
2 30382  98.5482 295.5315 0161638 268.4251 111.4407 14.21684011909382
FENGYUN 1C DEB          
1 30385U 99025ACY 24249.80022315  .00002850  00000+0  89145-3 0  9990
2 30385  99.0793 237.7598 0128296 207.5240 274.9837 14.36944345921293
FENGYUN 1C DEB          
1 30386U 99025ACZ 24249.31224757  .00004808  00000+0  53555-2 0  9991
2 30386  98.6853 193.4275 0311035 274.8961 242.5132 13.52944844865554
FENGYUN 1C DEB          
1 30387U 99025ADA 24249.30974862  .00001987  00000+0  10661-2 0  9996
2 30387  98.6906 271.6026 0001228  55.3427   7.9019 14.14124496907721
FENGYUN 1C DEB          
1 30388U 99025ADB 24249.33750182  .00004150  00000+0  16058-2 0  9998
2 30388  98.6431 276.3940 0226659 320.1719 103.0032 14.17502047908837
FENGYUN 1C DEB          
1 30389U 99025ADC 24249.78030362  .00018312  00000+0  66040-2 0  9990
2 30389  98.8654 310.0119 0016542 154.0223 323.4584 14.33576224911484
FENGYUN 1C DEB          
1 30390U 99025ADD 24249.19872285  .00013447  00000+0  58070-2 0  9993
2 30390  98.8484 321.9486 0074131  71.5063 348.0866 14.23054803907730
FENGYUN 1C DEB          
1 30391U 99025ADE 24249.36600903  .00008022  00000+0  42118-2 0  9998
2 30391  98.8244 295.6998 0076858 142.6152 279.8245 14.12867897903266
FENGYUN 1C DEB          
1 30392U 99025ADF 24249.90304722  .00002879  00000+0  15383-2 0  9997
2 30392  98.8234 274.5701 0184142 218.1486 265.1057 14.05707993901774
FENGYUN 1C DEB          
1 30393U 99025ADG 24249.70476385  .00000338  00000+0  26050-3 0  9993
2 30393  99.2314 300.0378 0071708  89.6079  30.9211 13.98667393898782
FENGYUN 1C DEB          
1 30394U 99025ADH 24249.61752588  .00001243  00000+0  92505-3 0  9990
2 30394  99.4685 260.0534 0088744 273.6149 210.5199 13.95163993896442
